     2.100          NAVIGATION                              RINEX VERSION / TYPE
fic2rin                                 10/10/2013 00:24:10 PGM / RUN BY / DATE
                                                            END OF HEADER
28 13 10 10  0  0  0.0  .299304258078D-03  .306954461848D-11  .000000000000D+00
     .950000000000D+02 -.911250000000D+02  .363300847224D-08  .216226299640D+01
    -.490620732307D-05  .188457518816D-01  .799633562565D-05  .515366026115D+04
     .345600000000D+06  .210478901863D-06  .399748241702D+00 -.264495611191D-06
     .984831259066D+00  .235062500000D+03 -.176198890879D+01 -.750352683773D-08
    -.592881838766D-10  .100000000000D+01  .176100000000D+04  .000000000000D+00
     .240000000000D+01  .000000000000D+00 -.107102096081D-07  .950000000000D+02
     .338406000000D+06  .400000000000D+01
29 13 10 10  0  0  0.0  .477535650134D-03  .318323145621D-11  .000000000000D+00
     .450000000000D+02 -.239062500000D+02  .429410743824D-08 -.203949082672D+01
    -.115483999252D-05  .142827979289D-02  .102762132883D-04  .515356669617D+04
     .345600000000D+06 -.186264514923D-07  .143751947343D+01  .894069671631D-07
     .966897226373D+00  .183093750000D+03 -.100945672148D+01 -.787997108957D-08
     .521807449660D-09  .100000000000D+01  .176100000000D+04  .000000000000D+00
     .240000000000D+01  .000000000000D+00 -.931322574615D-08  .450000000000D+02
     .338406000000D+06  .400000000000D+01
31 13 10 10  0  0  0.0  .327575486153D-03  .795807864051D-12  .000000000000D+00
     .730000000000D+02  .181562500000D+02  .437053919336D-08 -.141779132532D+01
     .948086380959D-06  .798925210256D-02  .312551856041D-05  .515368415260D+04
     .345600000000D+06 -.134110450745D-06 -.679372521678D+00 -.596046447754D-07
     .979801663324D+00  .332625000000D+03 -.731416306334D+00 -.836749139675D-08
     .225009372544D-10  .100000000000D+01  .176100000000D+04  .000000000000D+00
     .240000000000D+01  .000000000000D+00 -.130385160446D-07  .730000000000D+02
     .338406000000D+06  .400000000000D+01
32 13 10 10  0  0  0.0 -.541897490621D-03  .352429196937D-11  .000000000000D+00
     .102000000000D+03  .378125000000D+01  .496127808572D-08 -.956377461463D+00
     .143423676491D-06  .116260959767D-01  .967271625996D-05  .515357671547D+04
     .345600000000D+06 -.186264514923D-07 -.271517702305D+01 -.240281224251D-06
     .949006052791D+00  .189062500000D+03 -.275606103369D+00 -.821962809479D-08
    -.236438420038D-09  .100000000000D+01  .176100000000D+04  .000000000000D+00
     .340000000000D+01  .000000000000D+00 -.279396772385D-08  .102000000000D+03
     .338406000000D+06  .400000000000D+01
32 13 10  9 23 59 44.0 -.541897956282D-03  .352429196937D-11  .000000000000D+00
     .120000000000D+02  .378125000000D+01  .496127808572D-08 -.958711123012D+00
     .143423676491D-06  .116260971408D-01  .967271625996D-05  .515357670975D+04
     .345584000000D+06 -.186264514923D-07 -.271517688115D+01 -.240281224251D-06
     .949006058643D+00  .189062500000D+03 -.275606255513D+00 -.821962809479D-08
    -.236438420038D-09  .100000000000D+01  .176100000000D+04  .000000000000D+00
     .240000000000D+01  .000000000000D+00 -.279396772385D-08  .120000000000D+02
     .339486000000D+06  .400000000000D+01
24 13 10  9 23 59 44.0 -.152308493853D-04 -.682121026330D-12  .000000000000D+00
     .190000000000D+02  .856250000000D+01  .478019911448D-08 -.467070300976D+00
     .342726707458D-06  .113445252646D-02  .248663127422D-05  .515365475655D+04
     .345584000000D+06  .316649675369D-07 -.715284375128D+00 -.353902578354D-07
     .958272279773D+00  .332312500000D+03  .132124642996D+00 -.854178437103D-08
    -.123219418298D-09  .100000000000D+01  .176100000000D+04  .000000000000D+00
     .240000000000D+01  .000000000000D+00  .325962901115D-08  .190000000000D+02
     .340326000000D+06  .400000000000D+01
 9 13 10  9 23 59 44.0  .274377875030D-03  .272848410532D-11  .000000000000D+00
     .650000000000D+02  .975000000000D+01  .420481800469D-08 -.305204303750D+00
     .420957803726D-06  .168501388980D-01  .356696546078D-05  .515371506500D+04
     .345584000000D+06 -.262632966042D-06 -.706708645480D+00  .428408384323D-07
     .983401577023D+00  .325437500000D+03  .173266601935D+01 -.841785063727D-08
    -.335728270144D-10  .100000000000D+01  .176100000000D+04  .000000000000D+00
     .240000000000D+01  .000000000000D+00 -.558793544769D-08  .650000000000D+02
     .341076000000D+06  .400000000000D+01
11 13 10  9 23 59 44.0 -.427233520895D-03 -.341060513165D-11  .000000000000D+00
     .200000000000D+01  .107187500000D+02  .651527138720D-08 -.124870968216D+01
     .905245542526D-06  .146671796683D-01  .602006912231D-05  .515368458366D+04
     .345584000000D+06  .126659870148D-06  .213103406221D+01  .307336449623D-06
     .889273562773D+00  .224062500000D+03  .122437806732D+01 -.905787729695D-08
     .320013329840D-09  .100000000000D+01  .176100000000D+04  .000000000000D+00
     .240000000000D+01  .000000000000D+00 -.116415321827D-07  .200000000000D+01
     .341466000000D+06  .400000000000D+01
